{
  "type": "FeatureCollection",
  "features": [
    {
      "type": "Feature",
      "properties": {
        "norad_id": 33765,
        "name": "COSMOS 2251 DEB",
        "group": "cosmos-2251-debris",
        "lat": -62.07750641866469,
        "lon": 36.10651239557631,
        "alt_km": 504.2088310255549,
        "timestamp": "2025-12-07T18:50:17.107274+00:00",
        "meta_object_name": "COSMOS 2251 DEB",
        "meta_object_id": "1993-036N",
        "meta_epoch": "2025-12-07T07:22:53.222016",
        "meta_mean_motion": 15.09502975,
        "meta_eccentricity": 0.00667314,
        "meta_inclination": 74.0092,
        "meta_ra_of_asc_node": 184.3338,
        "meta_arg_of_pericenter": 277.4427,
        "meta_mean_anomaly": 256.6889,
        "meta_ephemeris_type": 0,
        "meta_classification_type": "U",
        "meta_norad_cat_id": 33765,
        "meta_element_set_no": 999,
        "meta_rev_at_epoch": 89536,
        "meta_bstar": 0.0029196811,
        "meta_mean_motion_dot": 0.00049616,
        "meta_mean_motion_ddot": 0,
        "tle_line1": "1 33765U 93036N   25341.30756044  .00049616  00000+0  29197-2 0  9994",
        "tle_line2": "2 33765  74.0092 184.3338 0066731 277.4427 256.6889 15.09502975895362"
      },
      "geometry": {
        "type": "Point",
        "coordinates": [
          36.10651239557631,
          -62.07750641866469
        ]
      }
    },
    {
      "type": "Feature",
      "properties": {
        "norad_id": 33766,
        "name": "COSMOS 2251 DEB",
        "group": "cosmos-2251-debris",
        "lat": -6.414205693531341,
        "lon": 142.15075899831055,
        "alt_km": 733.2258328056732,
        "timestamp": "2025-12-07T18:50:17.107284+00:00",
        "meta_object_name": "COSMOS 2251 DEB",
        "meta_object_id": "1993-036P",
        "meta_epoch": "2025-12-07T03:48:34.015392",
        "meta_mean_motion": 14.34909743,
        "meta_eccentricity": 0.00638732,
        "meta_inclination": 74.1852,
        "meta_ra_of_asc_node": 145.1134,
        "meta_arg_of_pericenter": 350.0613,
        "meta_mean_anomaly": 9.9271,
        "meta_ephemeris_type": 0,
        "meta_classification_type": "U",
        "meta_norad_cat_id": 33766,
        "meta_element_set_no": 999,
        "meta_rev_at_epoch": 87665,
        "meta_bstar": 0.00082866707,
        "meta_mean_motion_dot": 2.386e-05,
        "meta_mean_motion_ddot": 0,
        "tle_line1": "1 33766U 93036P   25341.15872703  .00002386  00000+0  82867-3 0  9996",
        "tle_line2": "2 33766  74.1852 145.1134 0063873 350.0613   9.9271 14.34909743876652"
      },
      "geometry": {
        "type": "Point",
        "coordinates": [
          142.15075899831055,
          -6.414205693531341
        ]
      }
    },
    {
      "type": "Feature",
      "properties": {
        "norad_id": 33768,
        "name": "COSMOS 2251 DEB",
        "group": "cosmos-2251-debris",
        "lat": -23.11358883258552,
        "lon": 54.86600925381693,
        "alt_km": 1317.631778093948,
        "timestamp": "2025-12-07T18:50:17.107295+00:00",
        "meta_object_name": "COSMOS 2251 DEB",
        "meta_object_id": "1993-036R",
        "meta_epoch": "2025-12-07T00:38:57.187392",
        "meta_mean_motion": 13.58447436,
        "meta_eccentricity": 0.03660272,
        "meta_inclination": 74.0687,
        "meta_ra_of_asc_node": 229.0865,
        "meta_arg_of_pericenter": 28.0818,
        "meta_mean_anomaly": 70.803,
        "meta_ephemeris_type": 0,
        "meta_classification_type": "U",
        "meta_norad_cat_id": 33768,
        "meta_element_set_no": 999,
        "meta_rev_at_epoch": 83218,
        "meta_bstar": 0.00059278001,
        "meta_mean_motion_dot": 6.48e-06,
        "meta_mean_motion_ddot": 0,
        "tle_line1": "1 33768U 93036R   25341.02705078  .00000648  00000+0  59278-3 0  9993",
        "tle_line2": "2 33768  74.0687 229.0865 0366027  28.0818  70.8030 13.58447436832189"
      },
      "geometry": {
        "type": "Point",
        "coordinates": [
          54.86600925381693,
          -23.11358883258552
        ]
      }
    },
    {
      "type": "Feature",
      "properties": {
        "norad_id": 33779,
        "name": "COSMOS 2251 DEB",
        "group": "cosmos-2251-debris",
        "lat": 59.313592189017854,
        "lon": -150.8475169870751,
        "alt_km": 664.8197082192946,
        "timestamp": "2025-12-07T18:50:17.107305+00:00",
        "meta_object_name": "COSMOS 2251 DEB",
        "meta_object_id": "1993-036U",
        "meta_epoch": "2025-12-07T07:55:49.042272",
        "meta_mean_motion": 14.70278982,
        "meta_eccentricity": 0.00174739,
        "meta_inclination": 74.044,
        "meta_ra_of_asc_node": 181.2095,
        "meta_arg_of_pericenter": 215.6862,
        "meta_mean_anomaly": 323.2628,
        "meta_ephemeris_type": 0,
        "meta_classification_type": "U",
        "meta_norad_cat_id": 33779,
        "meta_element_set_no": 999,
        "meta_rev_at_epoch": 88448,
        "meta_bstar": 0.0022632224,
        "meta_mean_motion_dot": 0.00013688,
        "meta_mean_motion_ddot": 0,
        "tle_line1": "1 33779U 93036U   25341.33042873  .00013688  00000+0  22632-2 0  9997",
        "tle_line2": "2 33779  74.0440 181.2095 0017473 215.6862 323.2628 14.70278982884484"
      },
      "geometry": {
        "type": "Point",
        "coordinates": [
          -150.8475169870751,
          59.313592189017854
        ]
      }
    },
    {
      "type": "Feature",
      "properties": {
        "norad_id": 33782,
        "name": "COSMOS 2251 DEB",
        "group": "cosmos-2251-debris",
        "lat": -2.376712384495101,
        "lon": -73.97046880271317,
        "alt_km": 745.4249997088882,
        "timestamp": "2025-12-07T18:50:17.107315+00:00",
        "meta_object_name": "COSMOS 2251 DEB",
        "meta_object_id": "1993-036X",
        "meta_epoch": "2025-12-06T21:27:51.338016",
        "meta_mean_motion": 14.40421814,
        "meta_eccentricity": 0.00205291,
        "meta_inclination": 74.0339,
        "meta_ra_of_asc_node": 288.3566,
        "meta_arg_of_pericenter": 354.1408,
        "meta_mean_anomaly": 67.2396,
        "meta_ephemeris_type": 0,
        "meta_classification_type": "U",
        "meta_norad_cat_id": 33782,
        "meta_element_set_no": 999,
        "meta_rev_at_epoch": 88042,
        "meta_bstar": 0.00081257636,
        "meta_mean_motion_dot": 2.562e-05,
        "meta_mean_motion_ddot": 0,
        "tle_line1": "1 33782U 93036X   25340.89434419  .00002562  00000+0  81258-3 0  9991",
        "tle_line2": "2 33782  74.0339 288.3566 0020529 354.1408  67.2396 14.40421814880426"
      },
      "geometry": {
        "type": "Point",
        "coordinates": [
          -73.97046880271317,
          -2.376712384495101
        ]
      }
    },
    {
      "type": "Feature",
      "properties": {
        "norad_id": 33785,
        "name": "COSMOS 2251 DEB",
        "group": "cosmos-2251-debris",
        "lat": 34.368903189593084,
        "lon": 81.05780175919519,
        "alt_km": 643.7419085871497,
        "timestamp": "2025-12-07T18:50:17.107326+00:00",
        "meta_object_name": "COSMOS 2251 DEB",
        "meta_object_id": "1993-036AA",
        "meta_epoch": "2025-12-07T05:44:45.589056",
        "meta_mean_motion": 14.70290132,
        "meta_eccentricity": 0.00217345,
        "meta_inclination": 73.868,
        "meta_ra_of_asc_node": 70.7093,
        "meta_arg_of_pericenter": 11.3408,
        "meta_mean_anomaly": 18.4222,
        "meta_ephemeris_type": 0,
        "meta_classification_type": "U",
        "meta_norad_cat_id": 33785,
        "meta_element_set_no": 999,
        "meta_rev_at_epoch": 88426,
        "meta_bstar": 0.0028737501,
        "meta_mean_motion_dot": 0.00017425,
        "meta_mean_motion_ddot": 0,
        "tle_line1": "1 33785U 93036AA  25341.23941654  .00017425  00000+0  28738-2 0  9994",
        "tle_line2": "2 33785  73.8680  70.7093 0021734  11.3408  18.4222 14.70290132884266"
      },
      "geometry": {
        "type": "Point",
        "coordinates": [
          81.05780175919519,
          34.368903189593084
        ]
      }
    },
    {
      "type": "Feature",
      "properties": {
        "norad_id": 33789,
        "name": "COSMOS 2251 DEB",
        "group": "cosmos-2251-debris",
        "lat": -46.789180217004215,
        "lon": -66.47947490838928,
        "alt_km": 770.6196831669986,
        "timestamp": "2025-12-07T18:50:17.107336+00:00",
        "meta_object_name": "COSMOS 2251 DEB",
        "meta_object_id": "1993-036AE",
        "meta_epoch": "2025-12-07T07:27:14.653728",
        "meta_mean_motion": 13.88776138,
        "meta_eccentricity": 0.02403777,
        "meta_inclination": 74.065,
        "meta_ra_of_asc_node": 96.62,
        "meta_arg_of_pericenter": 213.4431,
        "meta_mean_anomaly": 164.4245,
        "meta_ephemeris_type": 0,
        "meta_classification_type": "U",
        "meta_norad_cat_id": 33789,
        "meta_element_set_no": 999,
        "meta_rev_at_epoch": 85020,
        "meta_bstar": 0.0013929803,
        "meta_mean_motion_dot": 2.094e-05,
        "meta_mean_motion_ddot": 0,
        "tle_line1": "1 33789U 93036AE  25341.31058627  .00002094  00000+0  13930-2 0  9990",
        "tle_line2": "2 33789  74.0650  96.6200 0240377 213.4431 164.4245 13.88776138850201"
      },
      "geometry": {
        "type": "Point",
        "coordinates": [
          -66.47947490838928,
          -46.789180217004215
        ]
      }
    }
  ]
}